{"norad_cat_id":"30783","object_name":"CBERS 1 DEB","object_id":"1999-057NS","object_type":"DEBRIS","country_code":"CHBZ","epoch":"2026-05-30T05:07:33.078720","creation_date":"2026-05-30T07:46:57","launch_date":"1999-10-14","decay_date":null,"inclination":98.2768,"eccentricity":0.0034294,"mean_motion":14.53005081,"period":99.105,"semimajor_axis":7093.988,"apoapsis":740.181,"periapsis":691.524,"tle_line0":"0 CBERS 1 DEB","tle_line1":"1 30783U 99057NS  26150.21357730  .00003443  00000-0  83874-3 0  9990","tle_line2":"2 30783  98.2768 285.6406 0034294 257.4742 222.5920 14.53005081  8341","fetched_at":"2026-05-30T16:18:06.042337+00:00"}
{"norad_cat_id":"22418","object_name":"SL-16 DEB","object_id":"1992-093DK","object_type":"DEBRIS","country_code":"CIS","epoch":"2026-05-30T05:07:29.332416","creation_date":"2026-05-30T07:36:53","launch_date":"1992-12-25","decay_date":null,"inclination":71.1253,"eccentricity":0.0124193,"mean_motion":14.05353552,"period":102.465,"semimajor_axis":7253.453,"apoapsis":965.4,"periapsis":785.235,"tle_line0":"0 SL-16 DEB","tle_line1":"1 22418U 92093DK  26150.21353394  .00001217  00000-0  72628-3 0  9993","tle_line2":"2 22418  71.1253 334.7316 0124193  85.4121  25.1629 14.05353552703330","fetched_at":"2026-05-30T16:18:06.042337+00:00"}
{"norad_cat_id":"21498","object_name":"DELTA 1 DEB","object_id":"1975-052FT","object_type":"DEBRIS","country_code":"US","epoch":"2026-05-30T05:07:20.162784","creation_date":"2026-05-30T07:56:36","launch_date":"1975-06-12","decay_date":null,"inclination":99.7112,"eccentricity":0.0264167,"mean_motion":12.95310519,"period":111.17,"semimajor_axis":7658.656,"apoapsis":1482.838,"periapsis":1078.205,"tle_line0":"0 DELTA 1 DEB","tle_line1":"1 21498U 75052FT  26150.21342781  .00000352  00000-0  11749-2 0  9999","tle_line2":"2 21498  99.7112  68.5574 0264167 101.4896  57.3430 12.95310519653816","fetched_at":"2026-05-30T16:18:06.042337+00:00"}
{"norad_cat_id":"63295","object_name":"OBJECT E","object_id":"2025-055E","object_type":"UNKNOWN","country_code":"PRC","epoch":"2026-05-30T05:07:19.729056","creation_date":"2026-05-30T07:46:57","launch_date":"2025-03-17","decay_date":null,"inclination":97.6481,"eccentricity":0.001367,"mean_motion":15.16387374,"period":94.963,"semimajor_axis":6894.907,"apoapsis":526.197,"periapsis":507.346,"tle_line0":"0 OBJECT E","tle_line1":"1 63295U 25055E   26150.21342279  .00012769  00000-0  65899-3 0  9991","tle_line2":"2 63295  97.6481 289.7674 0013670 191.9442 168.1468 15.16387374 66283","fetched_at":"2026-05-30T16:18:06.042337+00:00"}
{"norad_cat_id":"48971","object_name":"ONEWEB-0253","object_id":"2021-060E","object_type":"PAYLOAD","country_code":"UK","epoch":"2026-05-30T05:07:16.616064","creation_date":"2026-05-30T07:36:53","launch_date":"2021-07-01","decay_date":null,"inclination":87.9103,"eccentricity":0.0001937,"mean_motion":13.16592676,"period":109.373,"semimajor_axis":7575.9,"apoapsis":1199.232,"periapsis":1196.297,"tle_line0":"0 ONEWEB-0253","tle_line1":"1 48971U 21060E   26150.21338676  .00000140  00000-0  33166-3 0  9995","tle_line2":"2 48971  87.9103 232.3444 0001937 103.1184 257.0163 13.16592676237225","fetched_at":"2026-05-30T16:18:06.042337+00:00"}
{"norad_cat_id":"34635","object_name":"COSMOS 2251 DEB","object_id":"1993-036XG","object_type":"DEBRIS","country_code":"CIS","epoch":"2026-05-30T05:07:13.304352","creation_date":"2026-05-30T07:26:56","launch_date":"1993-06-16","decay_date":null,"inclination":74.0432,"eccentricity":0.0029078,"mean_motion":14.70526573,"period":97.924,"semimajor_axis":7037.525,"apoapsis":679.853,"periapsis":638.926,"tle_line0":"0 COSMOS 2251 DEB","tle_line1":"1 34635U 93036XG  26150.21334843  .00008696  00000-0  14268-2 0  9996","tle_line2":"2 34635  74.0432 104.4796 0029078 133.8219 289.6779 14.70526573756946","fetched_at":"2026-05-30T16:18:06.042337+00:00"}
{"norad_cat_id":"56874","object_name":"LONGJIANG 3","object_id":"2023-082A","object_type":"PAYLOAD","country_code":"PRC","epoch":"2026-05-30T05:07:13.247328","creation_date":"2026-05-30T07:36:53","launch_date":"2023-06-09","decay_date":null,"inclination":49.1066,"eccentricity":0.000556,"mean_motion":15.41639248,"period":93.407,"semimajor_axis":6819.408,"apoapsis":445.065,"periapsis":437.481,"tle_line0":"0 LONGJIANG 3","tle_line1":"1 56874U 23082A   26150.21334777  .00028630  00000-0  67388-3 0  9997","tle_line2":"2 56874  49.1066 137.8809 0005560 325.3060  34.7527 15.41639248166597","fetched_at":"2026-05-30T16:18:06.042337+00:00"}
{"norad_cat_id":"18766","object_name":"SL-12 DEB","object_id":"1985-042J","object_type":"DEBRIS","country_code":"CIS","epoch":"2026-05-30T05:07:05.441952","creation_date":"2026-05-30T07:36:53","launch_date":"1985-05-30","decay_date":null,"inclination":66.563,"eccentricity":0.0050763,"mean_motion":14.44955222,"period":99.657,"semimajor_axis":7120.31,"apoapsis":778.32,"periapsis":706.03,"tle_line0":"0 SL-12 DEB","tle_line1":"1 18766U 85042J   26150.21325743  .00004222  00000-0  12155-2 0  9994","tle_line2":"2 18766  66.5630  75.3109 0050763 241.3497 279.2107 14.44955222987282","fetched_at":"2026-05-30T16:18:06.042337+00:00"}
{"norad_cat_id":"34884","object_name":"COSMOS 2251 DEB","object_id":"1993-036ACX","object_type":"DEBRIS","country_code":"CIS","epoch":"2026-05-30T05:07:04.590048","creation_date":"2026-05-30T07:26:56","launch_date":"1993-06-16","decay_date":null,"inclination":74.0134,"eccentricity":0.0008507,"mean_motion":14.99871225,"period":96.008,"semimajor_axis":6945.431,"apoapsis":573.204,"periapsis":561.387,"tle_line0":"0 COSMOS 2251 DEB","tle_line1":"1 34884U 93036ACX 26150.21324757  .00044087  00000-0  35341-2 0  9994","tle_line2":"2 34884  74.0134  76.4018 0008507 160.7407 353.7617 14.99871225903236","fetched_at":"2026-05-30T16:18:06.042337+00:00"}
{"norad_cat_id":"67026","object_name":"STARLINK-36176","object_id":"2025-293Z","object_type":"PAYLOAD","country_code":"US","epoch":"2026-05-30T05:06:59.861376","creation_date":"2026-05-30T07:26:56","launch_date":"2025-12-10","decay_date":null,"inclination":70.004,"eccentricity":0.0002762,"mean_motion":14.98346553,"period":96.106,"semimajor_axis":6950.142,"apoapsis":573.926,"periapsis":570.087,"tle_line0":"0 STARLINK-36176","tle_line1":"1 67026U 25293Z   26150.21319284  .00005535  00000-0  47114-3 0  9994","tle_line2":"2 67026  70.0040 248.7279 0002762 285.6935  74.3920 14.98346553 27099","fetched_at":"2026-05-30T16:18:06.042337+00:00"}
{"norad_cat_id":"13053","object_name":"COSMOS 1275 DEB","object_id":"1981-053EY","object_type":"DEBRIS","country_code":"CIS","epoch":"2026-05-30T05:06:58.809024","creation_date":"2026-05-30T07:36:53","launch_date":"1981-06-04","decay_date":null,"inclination":83.0747,"eccentricity":0.0115154,"mean_motion":13.72132682,"period":104.946,"semimajor_axis":7370.061,"apoapsis":1076.796,"periapsis":907.057,"tle_line0":"0 COSMOS 1275 DEB","tle_line1":"1 13053U 81053EY  26150.21318066  .00001239  00000-0  12822-2 0  9992","tle_line2":"2 13053  83.0747  72.1377 0115154 133.0422  21.6326 13.72132682221046","fetched_at":"2026-05-30T16:18:06.042337+00:00"}
{"norad_cat_id":"43943","object_name":"JILIN-01-09","object_id":"2019-005B","object_type":"PAYLOAD","country_code":"PRC","epoch":"2026-05-30T05:06:55.473984","creation_date":"2026-05-30T07:26:56","launch_date":"2019-01-21","decay_date":null,"inclination":97.4735,"eccentricity":0.0003385,"mean_motion":15.20336607,"period":94.716,"semimajor_axis":6882.961,"apoapsis":507.156,"periapsis":502.497,"tle_line0":"0 JILIN-01-09","tle_line1":"1 43943U 19005B   26150.21314206  .00007385  00000-0  34259-3 0  9990","tle_line2":"2 43943  97.4735 245.3322 0003385 131.1418 229.0109 15.20336607406410","fetched_at":"2026-05-30T16:18:06.042337+00:00"}
{"norad_cat_id":"21437","object_name":"DELTA 1 DEB","object_id":"1975-052DV","object_type":"DEBRIS","country_code":"US","epoch":"2026-05-30T05:06:49.551264","creation_date":"2026-05-30T07:36:53","launch_date":"1975-06-12","decay_date":null,"inclination":100.1912,"eccentricity":0.0056223,"mean_motion":13.37496126,"period":107.664,"semimajor_axis":7496.758,"apoapsis":1160.772,"periapsis":1076.474,"tle_line0":"0 DELTA 1 DEB","tle_line1":"1 21437U 75052DV  26150.21307351  .00000223  00000-0  50655-3 0  9993","tle_line2":"2 21437 100.1912  51.5470 0056223 132.3988  20.1955 13.37496126710010","fetched_at":"2026-05-30T16:18:06.042337+00:00"}
{"norad_cat_id":"56052","object_name":"ONEWEB-0550","object_id":"2023-043G","object_type":"PAYLOAD","country_code":"UK","epoch":"2026-05-30T05:06:46.946304","creation_date":"2026-05-30T07:56:36","launch_date":"2023-03-26","decay_date":null,"inclination":87.9255,"eccentricity":0.0002058,"mean_motion":13.21824861,"period":108.94,"semimajor_axis":7555.895,"apoapsis":1179.315,"periapsis":1176.205,"tle_line0":"0 ONEWEB-0550","tle_line1":"1 56052U 23043G   26150.21304336  .00000085  00000-0  17434-3 0  9991","tle_line2":"2 56052  87.9255 247.5538 0002058  94.0697 266.0672 13.21824861155859","fetched_at":"2026-05-30T16:18:06.042337+00:00"}
{"norad_cat_id":"704","object_name":"TRANSIT 5B-2","object_id":"1963-049B","object_type":"PAYLOAD","country_code":"US","epoch":"2026-05-30T05:06:46.501344","creation_date":"2026-05-30T07:26:56","launch_date":"1963-12-05","decay_date":null,"inclination":89.925,"eccentricity":0.003486,"mean_motion":13.47124412,"period":106.894,"semimajor_axis":7460.994,"apoapsis":1108.868,"periapsis":1056.85,"tle_line0":"0 TRANSIT 5B-2","tle_line1":"1   704U 63049B   26150.21303821  .00000070  00000-0  98673-4 0  9991","tle_line2":"2   704  89.9250  70.5719 0034860 354.4620 174.2791 13.47124412 68903","fetched_at":"2026-05-30T16:18:06.042337+00:00"}
